GLOBALSTAR M094 [+]     
1 39074U 13005C   24018.13433595 -.00000080  00000+0  13446-3 0  9999
2 39074  51.9979 313.3463 0000352  61.6313 298.4589 12.62271076507223
GLOBALSTAR M096 [+]     
1 39075U 13005D   24018.14776793 -.00000088  00000+0  86256-4 0  9999
2 39075  52.0098   1.4176 0000229 143.9368 216.1514 12.62267618506479
GLOBALSTAR M078 [+]     
1 39076U 13005E   24017.48791294 -.00000131  00000+0 -15201-3 0  9990
2 39076  51.9880  88.6379 0001582 116.5609 243.5419 12.62257025504664
GLOBALSTAR M095 [+]     
1 39077U 13005F   24018.14741408 -.00000083  00000+0  11755-3 0  9992
2 39077  51.9815  84.0793 0001464 154.3449 205.7491 12.62263459504965
GLOBALSTAR M087 [+]     
1 52888U 22064A   24018.16805455 -.00000086  00000+0  80815-4 0  9994
2 52888  51.9777  14.9736 0009394 343.6360  16.4236 13.37562716 77310
